[{"OBJECT_NAME":"GSAT-8","OBJECT_ID":"2011-022A","EPOCH":"2026-03-06T03:57:02.731680","MEAN_MOTION":1.00273098,"ECCENTRICITY":0.00072005,"INCLINATION":1.8647,"RA_OF_ASC_NODE":83.1349,"ARG_OF_PERICENTER":216.1771,"MEAN_ANOMALY":338.8878,"EPHEMERIS_TYPE":0,"CLASSIFICATION_TYPE":"U","NORAD_CAT_ID":37605,"ELEMENT_SET_NO":999,"REV_AT_EPOCH":5218,"BSTAR":0,"MEAN_MOTION_DOT":8.0e-7,"MEAN_MOTION_DDOT":0},{"OBJECT_NAME":"ST-2","OBJECT_ID":"2011-022B","EPOCH":"2026-03-06T02:23:49.170624","MEAN_MOTION":1.00278595,"ECCENTRICITY":0.00020236,"INCLINATION":0.0161,"RA_OF_ASC_NODE":219.3028,"ARG_OF_PERICENTER":139.4306,"MEAN_ANOMALY":289.0282,"EPHEMERIS_TYPE":0,"CLASSIFICATION_TYPE":"U","NORAD_CAT_ID":37606,"ELEMENT_SET_NO":999,"REV_AT_EPOCH":5424,"BSTAR":0,"MEAN_MOTION_DOT":-2.18e-6,"MEAN_MOTION_DDOT":0},{"OBJECT_NAME":"ZHONGXING-10","OBJECT_ID":"2011-026A","EPOCH":"2026-03-06T02:28:38.663328","MEAN_MOTION":1.00268958,"ECCENTRICITY":0.00027206,"INCLINATION":0.7806,"RA_OF_ASC_NODE":85.5526,"ARG_OF_PERICENTER":265.7171,"MEAN_ANOMALY":295.1697,"EPHEMERIS_TYPE":0,"CLASSIFICATION_TYPE":"U","NORAD_CAT_ID":37677,"ELEMENT_SET_NO":999,"REV_AT_EPOCH":5396,"BSTAR":0,"MEAN_MOTION_DOT":-1.92e-6,"MEAN_MOTION_DDOT":0},{"OBJECT_NAME":"SES-3","OBJECT_ID":"2011-035A","EPOCH":"2026-03-06T04:24:38.565216","MEAN_MOTION":1.00272342,"ECCENTRICITY":0.00035828,"INCLINATION":1.0603,"RA_OF_ASC_NODE":84.2843,"ARG_OF_PERICENTER":269.0565,"MEAN_ANOMALY":133.7161,"EPHEMERIS_TYPE":0,"CLASSIFICATION_TYPE":"U","NORAD_CAT_ID":37748,"ELEMENT_SET_NO":999,"REV_AT_EPOCH":5356,"BSTAR":0,"MEAN_MOTION_DOT":-1.07e-6,"MEAN_MOTION_DDOT":0},{"OBJECT_NAME":"KAZSAT-2","OBJECT_ID":"2011-035B","EPOCH":"2026-03-05T16:07:14.456640","MEAN_MOTION":1.0026867,"ECCENTRICITY":4.408e-5,"INCLINATION":0.0198,"RA_OF_ASC_NODE":128.3349,"ARG_OF_PERICENTER":236.58,"MEAN_ANOMALY":126.7978,"EPHEMERIS_TYPE":0,"CLASSIFICATION_TYPE":"U","NORAD_CAT_ID":37749,"ELEMENT_SET_NO":999,"REV_AT_EPOCH":5236,"BSTAR":0,"MEAN_MOTION_DOT":-2.04e-6,"MEAN_MOTION_DDOT":0},{"OBJECT_NAME":"BREEZE-M R/B","OBJECT_ID":"2011-035D","EPOCH":"2026-03-06T06:02:58.156800","MEAN_MOTION":1.12712941,"ECCENTRICITY":0.07719132,"INCLINATION":9.2514,"RA_OF_ASC_NODE":35.1224,"ARG_OF_PERICENTER":62.2155,"MEAN_ANOMALY":300.8361,"EPHEMERIS_TYPE":0,"CLASSIFICATION_TYPE":"U","NORAD_CAT_ID":37751,"ELEMENT_SET_NO":999,"REV_AT_EPOCH":6021,"BSTAR":0,"MEAN_MOTION_DOT":-1.27e-6,"MEAN_MOTION_DDOT":0},{"OBJECT_NAME":"BEIDOU-2 IGSO-4","OBJECT_ID":"2011-038A","EPOCH":"2026-03-05T17:23:06.211680","MEAN_MOTION":1.00265577,"ECCENTRICITY":0.01545816,"INCLINATION":54.5899,"RA_OF_ASC_NODE":166.6081,"ARG_OF_PERICENTER":230.9953,"MEAN_ANOMALY":121.0281,"EPHEMERIS_TYPE":0,"CLASSIFICATION_TYPE":"U","NORAD_CAT_ID":37763,"ELEMENT_SET_NO":999,"REV_AT_EPOCH":5360,"BSTAR":0,"MEAN_MOTION_DOT":-1.0e-6,"MEAN_MOTION_DDOT":0},{"OBJECT_NAME":"ASTRA 1N","OBJECT_ID":"2011-041A","EPOCH":"2026-03-05T14:05:18.648096","MEAN_MOTION":1.00274542,"ECCENTRICITY":0.0004155,"INCLINATION":0.0703,"RA_OF_ASC_NODE":22.8506,"ARG_OF_PERICENTER":356.9516,"MEAN_ANOMALY":14.0459,"EPHEMERIS_TYPE":0,"CLASSIFICATION_TYPE":"U","NORAD_CAT_ID":37775,"ELEMENT_SET_NO":999,"REV_AT_EPOCH":4348,"BSTAR":0,"MEAN_MOTION_DOT":1.13e-6,"MEAN_MOTION_DDOT":0},{"OBJECT_NAME":"BSAT-3C (JCSAT-110R)","OBJECT_ID":"2011-041B","EPOCH":"2026-03-06T00:47:20.921856","MEAN_MOTION":1.0026484,"ECCENTRICITY":0.00011162,"INCLINATION":0.0138,"RA_OF_ASC_NODE":118.3847,"ARG_OF_PERICENTER":320.9521,"MEAN_ANOMALY":206.2278,"EPHEMERIS_TYPE":0,"CLASSIFICATION_TYPE":"U","NORAD_CAT_ID":37776,"ELEMENT_SET_NO":999,"REV_AT_EPOCH":4943,"BSTAR":0,"MEAN_MOTION_DOT":0,"MEAN_MOTION_DDOT":0},{"OBJECT_NAME":"PAKSAT-1R","OBJECT_ID":"2011-042A","EPOCH":"2026-03-06T05:26:26.562048","MEAN_MOTION":1.00279563,"ECCENTRICITY":0.00027061,"INCLINATION":0.4219,"RA_OF_ASC_NODE":85.7411,"ARG_OF_PERICENTER":308.4091,"MEAN_ANOMALY":249.4871,"EPHEMERIS_TYPE":0,"CLASSIFICATION_TYPE":"U","NORAD_CAT_ID":37779,"ELEMENT_SET_NO":999,"REV_AT_EPOCH":5344,"BSTAR":0,"MEAN_MOTION_DOT":1.49e-6,"MEAN_MOTION_DDOT":0},{"OBJECT_NAME":"BREEZE-M DEB [ADAPTOR]","OBJECT_ID":"2011-035E","EPOCH":"2026-03-06T06:14:27.055968","MEAN_MOTION":2.05987878,"ECCENTRICITY":0.61509475,"INCLINATION":24.2357,"RA_OF_ASC_NODE":79.8014,"ARG_OF_PERICENTER":147.3968,"MEAN_ANOMALY":256.0187,"EPHEMERIS_TYPE":0,"CLASSIFICATION_TYPE":"U","NORAD_CAT_ID":37787,"ELEMENT_SET_NO":999,"REV_AT_EPOCH":10799,"BSTAR":0,"MEAN_MOTION_DOT":5.1e-7,"MEAN_MOTION_DDOT":0},{"OBJECT_NAME":"ZHONGXING-1A","OBJECT_ID":"2011-047A","EPOCH":"2026-03-06T06:27:18.321984","MEAN_MOTION":1.00029748,"ECCENTRICITY":0.00040746,"INCLINATION":3.4529,"RA_OF_ASC_NODE":79.6807,"ARG_OF_PERICENTER":265.0347,"MEAN_ANOMALY":137.7733,"EPHEMERIS_TYPE":0,"CLASSIFICATION_TYPE":"U","NORAD_CAT_ID":37804,"ELEMENT_SET_NO":999,"REV_AT_EPOCH":2630,"BSTAR":0,"MEAN_MOTION_DOT":1.12e-6,"MEAN_MOTION_DDOT":0},{"OBJECT_NAME":"COSMOS 2473","OBJECT_ID":"2011-048A","EPOCH":"2026-03-04T03:02:50.573472","MEAN_MOTION":1.00208542,"ECCENTRICITY":0.0005253,"INCLINATION":5.3103,"RA_OF_ASC_NODE":74.7835,"ARG_OF_PERICENTER":159.2985,"MEAN_ANOMALY":181.8603,"EPHEMERIS_TYPE":0,"CLASSIFICATION_TYPE":"U","NORAD_CAT_ID":37806,"ELEMENT_SET_NO":999,"REV_AT_EPOCH":641,"BSTAR":0,"MEAN_MOTION_DOT":1.22e-6,"MEAN_MOTION_DDOT":0},{"OBJECT_NAME":"BREEZE-M R/B","OBJECT_ID":"2011-048B","EPOCH":"2026-03-06T04:19:38.681184","MEAN_MOTION":1.04263033,"ECCENTRICITY":0.02282803,"INCLINATION":9.8667,"RA_OF_ASC_NODE":43.8413,"ARG_OF_PERICENTER":81.6966,"MEAN_ANOMALY":81.3286,"EPHEMERIS_TYPE":0,"CLASSIFICATION_TYPE":"U","NORAD_CAT_ID":37807,"ELEMENT_SET_NO":999,"REV_AT_EPOCH":5454,"BSTAR":0,"MEAN_MOTION_DOT":-1.0e-6,"MEAN_MOTION_DDOT":0},{"OBJECT_NAME":"SES-2","OBJECT_ID":"2011-049A","EPOCH":"2026-03-06T04:16:38.860320","MEAN_MOTION":1.0027188,"ECCENTRICITY":0.00029092,"INCLINATION":0.0237,"RA_OF_ASC_NODE":76.2187,"ARG_OF_PERICENTER":270.4439,"MEAN_ANOMALY":154.3852,"EPHEMERIS_TYPE":0,"CLASSIFICATION_TYPE":"U","NORAD_CAT_ID":37809,"ELEMENT_SET_NO":999,"REV_AT_EPOCH":5293,"BSTAR":0,"MEAN_MOTION_DOT":-2.01e-6,"MEAN_MOTION_DDOT":0},{"OBJECT_NAME":"ARABSAT-5C","OBJECT_ID":"2011-049B","EPOCH":"2026-03-06T05:29:46.339584","MEAN_MOTION":1.00269548,"ECCENTRICITY":0.00027928,"INCLINATION":0.0547,"RA_OF_ASC_NODE":357.0209,"ARG_OF_PERICENTER":346.7197,"MEAN_ANOMALY":282.6558,"EPHEMERIS_TYPE":0,"CLASSIFICATION_TYPE":"U","NORAD_CAT_ID":37810,"ELEMENT_SET_NO":999,"REV_AT_EPOCH":5300,"BSTAR":0,"MEAN_MOTION_DOT":1.18e-6,"MEAN_MOTION_DDOT":0},{"OBJECT_NAME":"EUTELSAT 7 WEST A","OBJECT_ID":"2011-051A","EPOCH":"2026-03-06T05:21:54.593856","MEAN_MOTION":1.00272171,"ECCENTRICITY":0.00010046,"INCLINATION":0.0701,"RA_OF_ASC_NODE":12.5541,"ARG_OF_PERICENTER":226.4356,"MEAN_ANOMALY":358.1081,"EPHEMERIS_TYPE":0,"CLASSIFICATION_TYPE":"U","NORAD_CAT_ID":37816,"ELEMENT_SET_NO":999,"REV_AT_EPOCH":5284,"BSTAR":0,"MEAN_MOTION_DOT":-6.5e-7,"MEAN_MOTION_DDOT":0},{"OBJECT_NAME":"QUETZSAT 1","OBJECT_ID":"2011-054A","EPOCH":"2026-03-06T04:08:38.676768","MEAN_MOTION":1.00270897,"ECCENTRICITY":0.00028087,"INCLINATION":0.0497,"RA_OF_ASC_NODE":292.4662,"ARG_OF_PERICENTER":72.1609,"MEAN_ANOMALY":144.412,"EPHEMERIS_TYPE":0,"CLASSIFICATION_TYPE":"U","NORAD_CAT_ID":37826,"ELEMENT_SET_NO":999,"REV_AT_EPOCH":4884,"BSTAR":0,"MEAN_MOTION_DOT":-2.47e-6,"MEAN_MOTION_DDOT":0},{"OBJECT_NAME":"INTELSAT 18 (IS-18)","OBJECT_ID":"2011-056A","EPOCH":"2026-03-06T06:15:26.959680","MEAN_MOTION":1.002744,"ECCENTRICITY":0.00019211,"INCLINATION":0.0379,"RA_OF_ASC_NODE":265.9124,"ARG_OF_PERICENTER":78.0185,"MEAN_ANOMALY":93.9005,"EPHEMERIS_TYPE":0,"CLASSIFICATION_TYPE":"U","NORAD_CAT_ID":37834,"ELEMENT_SET_NO":999,"REV_AT_EPOCH":5277,"BSTAR":0,"MEAN_MOTION_DOT":4.8e-7,"MEAN_MOTION_DDOT":0},{"OBJECT_NAME":"SL-23 R/B","OBJECT_ID":"2011-056B","EPOCH":"2026-03-05T18:32:37.073184","MEAN_MOTION":1.9679421,"ECCENTRICITY":0.56645733,"INCLINATION":19.6506,"RA_OF_ASC_NODE":335.7542,"ARG_OF_PERICENTER":241.8706,"MEAN_ANOMALY":50.3738,"EPHEMERIS_TYPE":0,"CLASSIFICATION_TYPE":"U","NORAD_CAT_ID":37835,"ELEMENT_SET_NO":999,"REV_AT_EPOCH":10363,"BSTAR":0,"MEAN_MOTION_DOT":5.0e-7,"MEAN_MOTION_DDOT":0},{"OBJECT_NAME":"EUTELSAT 16A","OBJECT_ID":"2011-057A","EPOCH":"2026-03-06T05:28:31.460160","MEAN_MOTION":1.00272292,"ECCENTRICITY":0.00054758,"INCLINATION":0.056,"RA_OF_ASC_NODE":357.1575,"ARG_OF_PERICENTER":349.8259,"MEAN_ANOMALY":275.0817,"EPHEMERIS_TYPE":0,"CLASSIFICATION_TYPE":"U","NORAD_CAT_ID":37836,"ELEMENT_SET_NO":999,"REV_AT_EPOCH":630,"BSTAR":0,"MEAN_MOTION_DOT":9.9e-7,"MEAN_MOTION_DDOT":0},{"OBJECT_NAME":"VIASAT-1","OBJECT_ID":"2011-059A","EPOCH":"2026-03-05T20:03:09.006624","MEAN_MOTION":1.00273952,"ECCENTRICITY":0.0002229,"INCLINATION":0.017,"RA_OF_ASC_NODE":166.745,"ARG_OF_PERICENTER":186.7509,"MEAN_ANOMALY":355.7291,"EPHEMERIS_TYPE":0,"CLASSIFICATION_TYPE":"U","NORAD_CAT_ID":37843,"ELEMENT_SET_NO":999,"REV_AT_EPOCH":4628,"BSTAR":0,"MEAN_MOTION_DOT":-3.0e-7,"MEAN_MOTION_DDOT":0},{"OBJECT_NAME":"ASIASAT 7","OBJECT_ID":"2011-069A","EPOCH":"2026-03-06T00:46:06.041568","MEAN_MOTION":1.00268057,"ECCENTRICITY":9.63e-5,"INCLINATION":0.0083,"RA_OF_ASC_NODE":144.1856,"ARG_OF_PERICENTER":203.7823,"MEAN_ANOMALY":292.7495,"EPHEMERIS_TYPE":0,"CLASSIFICATION_TYPE":"U","NORAD_CAT_ID":37933,"ELEMENT_SET_NO":999,"REV_AT_EPOCH":4382,"BSTAR":0,"MEAN_MOTION_DOT":-3.39e-6,"MEAN_MOTION_DDOT":0},{"OBJECT_NAME":"BEIDOU-2 IGSO-5","OBJECT_ID":"2011-073A","EPOCH":"2026-03-04T13:08:52.662336","MEAN_MOTION":1.00272598,"ECCENTRICITY":0.01085888,"INCLINATION":47.8676,"RA_OF_ASC_NODE":272.8369,"ARG_OF_PERICENTER":221.1171,"MEAN_ANOMALY":320.721,"EPHEMERIS_TYPE":0,"CLASSIFICATION_TYPE":"U","NORAD_CAT_ID":37948,"ELEMENT_SET_NO":999,"REV_AT_EPOCH":5208,"BSTAR":0,"MEAN_MOTION_DOT":-1.53e-6,"MEAN_MOTION_DDOT":0}]
